[{"OBJECT_NAME":"NANOSATC-BR1","OBJECT_ID":"2014-033Q","EPOCH":"2026-03-09T23:35:03.168384","MEAN_MOTION":15.28136801,"ECCENTRICITY":0.00046435,"INCLINATION":98.0845,"RA_OF_ASC_NODE":92.7804,"ARG_OF_PERICENTER":147.6715,"MEAN_ANOMALY":212.4808,"EPHEMERIS_TYPE":0,"CLASSIFICATION_TYPE":"U","NORAD_CAT_ID":40024,"ELEMENT_SET_NO":999,"REV_AT_EPOCH":63881,"BSTAR":0.00074295057,"MEAN_MOTION_DOT":0.00020336,"MEAN_MOTION_DDOT":0},{"OBJECT_NAME":"STARLINK-30077","OBJECT_ID":"2023-107D","EPOCH":"2026-03-09T02:47:30.883488","MEAN_MOTION":15.27564952,"ECCENTRICITY":0.00010009,"INCLINATION":43.0018,"RA_OF_ASC_NODE":338.9783,"ARG_OF_PERICENTER":268.7747,"MEAN_ANOMALY":91.299,"EPHEMERIS_TYPE":0,"CLASSIFICATION_TYPE":"U","NORAD_CAT_ID":57460,"ELEMENT_SET_NO":999,"REV_AT_EPOCH":14506,"BSTAR":-3.6264863e-5,"MEAN_MOTION_DOT":-1.259e-5,"MEAN_MOTION_DDOT":0}]
